OBJECT_NAME,OBJECT_ID,EPOCH,MEAN_MOTION,ECCENTRICITY,INCLINATION,RA_OF_ASC_NODE,ARG_OF_PERICENTER,MEAN_ANOMALY,EPHEMERIS_TYPE,CLASSIFICATION_TYPE,NORAD_CAT_ID,ELEMENT_SET_NO,REV_AT_EPOCH,BSTAR,MEAN_MOTION_DOT,MEAN_MOTION_DDOT
LEMUR-2-ROUNDTRIPPER,2025-009DG,2026-07-14T18:29:19.053024,15.04228089,.0004444,97.7254,278.4154,64.5890,295.5795,0,U,62711,999,8177,.34951E-3,.4798E-4,0
LEMUR-2-MYNAMEISJEFF,2025-009DH,2026-07-14T18:27:08.106048,15.04219262,.0004032,97.7303,278.8116,98.2906,261.8777,0,U,62712,999,8177,.34531E-3,.4738E-4,0
LEMUR-2-LEIA-PHILIP,2025-052AN,2026-07-14T16:03:10.332576,14.97391237,.0005082,97.6807,87.1539,120.4778,239.6947,0,U,63246,999,7278,.2585E-4,.243E-5,0
LEMUR-2-LIA-MARTIN,2025-052AQ,2026-07-14T15:55:39.258912,14.98028183,.0005323,97.6872,87.6667,90.9786,269.2046,0,U,63248,999,7279,.20188E-3,.2328E-4,0
LEMUR-2-DELOITTE-1,2025-052BB,2026-07-14T17:03:35.050176,14.97779672,.0002519,97.6883,88.0432,65.5958,294.5527,0,U,63259,999,7281,.20091E-3,.2301E-4,0
LEMUR-2-EMERSONROSE,2025-052BD,2026-07-14T15:48:36.101952,14.99288120,.0002747,97.6885,88.6039,61.6486,298.5013,0,U,63261,999,7285,.23258E-3,.278E-4,0
LEMUR-2-MARACHE-FRAN,2025-052BE,2026-07-14T16:21:49.775040,15.00313702,.0005132,97.6840,88.9942,254.1706,105.8952,0,U,63262,999,7288,.14883E-3,.1807E-4,0
LEMUR-2-THEFALCONER,2025-052BG,2026-07-14T16:11:07.289088,14.97562332,.0000306,97.6834,87.5989,310.2900,49.8296,0,U,63264,999,7280,.9195E-4,.1016E-4,0
LEMUR-2-UNTITLED-SC,2025-061A,2026-07-14T20:31:45.035040,15.13645200,.0019204,97.5652,171.0209,164.2030,195.9804,0,U,63351,999,7177,.94143E-4,.1632E-4,0
LEMUR-2-ESPERANZA,2025-061B,2026-07-14T19:56:16.107936,15.13750886,.0018817,97.5658,171.0965,163.4492,196.7357,0,U,63352,999,7177,.10095E-3,.176E-4,0
LEMUR-2-KREMPEL-BRO2,2025-061C,2026-07-14T17:13:24.660192,15.14176924,.0019921,97.5705,171.5525,156.8557,203.3576,0,U,63353,999,7177,.91961E-4,.1618E-4,0
LEMUR-2-THERMORAPTOR,2025-061D,2026-07-14T19:55:45.943104,15.14260323,.00197,97.5710,171.7457,155.3105,204.9074,0,U,63354,999,7179,.1111E-3,.1973E-4,0
LEMUR-2-NEUROSPICY,2025-061E,2026-07-14T19:11:54.390048,15.14379275,.0017449,97.5637,171.3203,158.2789,201.9186,0,U,63355,999,7179,.1149E-3,.2048E-4,0
LEMUR-2-TILLINFINITY,2025-061F,2026-07-14T19:47:21.945984,15.14962766,.0019029,97.5623,171.6547,147.0533,213.1889,0,U,63356,999,7182,.11558E-3,.2097E-4,0
LEMUR-2-KREMPEL-BRO1,2025-061G,2026-07-14T19:14:14.969760,15.14770197,.0019653,97.5623,171.5400,148.5321,211.7091,0,U,63357,999,7181,.11274E-3,.2033E-4,0
LEMUR-2-LANGER2SPACE,2025-061H,2026-07-14T20:00:23.821920,15.14463578,.0017395,97.5630,171.3748,156.4106,203.7927,0,U,63358,999,7180,.10414E-3,.1854E-4,0
LEMUR-2-BALTO,2025-052BH,2026-07-14T15:59:20.188896,15.00361361,.0005147,97.6930,88.9659,329.8466,30.2460,0,U,63395,999,7288,.21456E-3,.2634E-4,0
LEMUR-2-KRISH,2025-135AK,2026-07-14T06:59:13.109280,14.96445154,.00013907,97.7772,309.9867,95.6584,264.4796,0,U,64561,999,5797,.17575838E-3,.1935E-4,0
LEMUR-2-HUBBLE-4,2025-135AP,2026-07-14T19:20:58.801632,14.93685362,.0002639,97.7719,309.3922,163.0324,197.0985,0,U,64565,999,5799,.95529E-4,.953E-5,0
LEMUR-2-SEJONG-2,2025-135BL,2026-07-14T20:19:58.475712,14.96909956,.0003955,97.7707,310.6849,220.3575,139.7353,0,U,64586,999,5808,.18883E-3,.2109E-4,0
LEMUR-2-HUBBLE-5,2025-135BT,2026-07-14T06:42:26.925984,14.94212295,.000427,97.7739,309.5394,239.0062,121.0739,0,U,64840,999,5795,.85597083E-4,.86E-5,0
LEMUR-2-KARENDARRELL,2025-135BU,2026-07-14T19:06:43.900416,15.00496415,.0012406,97.7716,311.9680,106.0163,254.2428,0,U,64841,999,5815,.34041E-3,.4234E-4,0
LEMUR-2-LUCILLE-ROSE,2025-135BV,2026-07-14T20:04:31.573920,15.00486338,.0014883,97.7711,312.0433,190.0513,170.0415,0,U,65403,999,5278,.2783E-3,.3451E-4,0
LEMUR-2-AFFIE-WAUWIE,2025-248C,2026-07-14T09:19:56.627040,15.28229453,.00087596,45.3893,327.4899,246.6108,113.3860,0,U,66295,999,3875,.47322499E-3,.12991E-3,0
OTTER SDM,2025-276N,2026-07-14T04:13:03.478944,15.20049880,.00042681,97.4208,268.2073,258.7712,101.3043,0,U,66678,999,3451,.16567661E-3,.3505E-4,0
LEMUR-2-STAS-GORBUK,2025-276W,2026-07-14T17:22:05.265984,15.19655943,.0003582,97.4241,268.7981,250.0656,110.0194,0,U,66686,999,3459,.13445E-3,.2799E-4,0
LEMUR-2-TEODOR,2025-276DG,2026-07-14T17:49:52.588992,15.21334511,.0002231,97.4146,269.0885,87.3764,272.7727,0,U,66768,999,3463,.15199E-3,.3334E-4,0
LEMUR-2-LAILA,2025-276DQ,2026-07-14T04:28:53.005440,15.21556874,.00028905,97.4170,268.6786,95.5608,264.5957,0,U,66776,999,3455,.13970026E-3,.3079E-4,0
LEMUR-2-CELIJO-SB-PK,2025-276DW,2026-07-14T17:13:56.069184,15.00280687,.0007045,97.5200,265.5868,65.5259,294.6699,0,U,66781,999,2675,.22038E-3,.2704E-4,0
LEMUR-2-FINNIAN,2025-276DX,2026-07-14T10:07:12.706176,15.00610397,.00084412,97.5382,265.5655,359.1143,1.0065,0,U,66782,999,2408,.13038039E-3,.159E-4,0
