LEMUR-2-ROUNDTRIPPER    
1 62711U 25009DG  26195.77035941  .00004798  00000+0  34951-3 0  9994
2 62711  97.7254 278.4154 0004444  64.5890 295.5795 15.04228089 81776
LEMUR-2-MYNAMEISJEFF    
1 62712U 25009DH  26195.76884382  .00004738  00000+0  34531-3 0  9993
2 62712  97.7303 278.8116 0004032  98.2906 261.8777 15.04219262 81778
LEMUR-2-LEIA-PHILIP     
1 63246U 25052AN  26195.66886959  .00000243  00000+0  25850-4 0  9997
2 63246  97.6807  87.1539 0005082 120.4778 239.6947 14.97391237 72787
LEMUR-2-LIA-MARTIN      
1 63248U 25052AQ  26195.66364883  .00002328  00000+0  20188-3 0  9990
2 63248  97.6872  87.6667 0005323  90.9786 269.2046 14.98028183 72794
LEMUR-2-DELOITTE-1      
1 63259U 25052BB  26195.71082234  .00002301  00000+0  20091-3 0  9999
2 63259  97.6883  88.0432 0002519  65.5958 294.5527 14.97779672 72819
LEMUR-2-EMERSONROSE     
1 63261U 25052BD  26195.65875118  .00002780  00000+0  23258-3 0  9995
2 63261  97.6885  88.6039 0002747  61.6486 298.5013 14.99288120 72852
LEMUR-2-MARACHE-FRAN    
1 63262U 25052BE  26195.68182610  .00001807  00000+0  14883-3 0  9990
2 63262  97.6840  88.9942 0005132 254.1706 105.8952 15.00313702 72888
LEMUR-2-THEFALCONER     
1 63264U 25052BG  26195.67438992  .00001016  00000+0  91950-4 0  9991
2 63264  97.6834  87.5989 0000306 310.2900  49.8296 14.97562332 72807
LEMUR-2-UNTITLED-SC     
1 63351U 25061A   26195.85538235  .00001632  00000+0  94143-4 0  9990
2 63351  97.5652 171.0209 0019204 164.2030 195.9804 15.13645200 71771
LEMUR-2-ESPERANZA       
1 63352U 25061B   26195.83074199  .00001760  00000+0  10095-3 0  9998
2 63352  97.5658 171.0965 0018817 163.4492 196.7357 15.13750886 71778
LEMUR-2-KREMPEL-BRO2    
1 63353U 25061C   26195.71764653  .00001618  00000+0  91961-4 0  9991
2 63353  97.5705 171.5525 0019921 156.8557 203.3576 15.14176924 71778
LEMUR-2-THERMORAPTOR    
1 63354U 25061D   26195.83039286  .00001973  00000+0  11110-3 0  9993
2 63354  97.5710 171.7457 0019700 155.3105 204.9074 15.14260323 71798
LEMUR-2-NEUROSPICY      
1 63355U 25061E   26195.79993507  .00002048  00000+0  11490-3 0  9999
2 63355  97.5637 171.3203 0017449 158.2789 201.9186 15.14379275 71798
LEMUR-2-TILLINFINITY    
1 63356U 25061F   26195.82455956  .00002097  00000+0  11558-3 0  9994
2 63356  97.5623 171.6547 0019029 147.0533 213.1889 15.14962766 71829
LEMUR-2-KREMPEL-BRO1    
1 63357U 25061G   26195.80156215  .00002033  00000+0  11274-3 0  9994
2 63357  97.5623 171.5400 0019653 148.5321 211.7091 15.14770197 71814
LEMUR-2-LANGER2SPACE    
1 63358U 25061H   26195.83360905  .00001854  00000+0  10414-3 0  9996
2 63358  97.5630 171.3748 0017395 156.4106 203.7927 15.14463578 71806
LEMUR-2-BALTO           
1 63395U 25052BH  26195.66620589  .00002634  00000+0  21456-3 0  9990
2 63395  97.6930  88.9659 0005147 329.8466  30.2460 15.00361361 72888
LEMUR-2-KRISH           
1 64561U 25135AK  26195.29112395  .00001935  00000+0  17576-3 0  9999
2 64561  97.7772 309.9867 0001390  95.6584 264.4796 14.96445154 57974
LEMUR-2-HUBBLE-4        
1 64565U 25135AP  26195.80623613  .00000953  00000+0  95529-4 0  9994
2 64565  97.7719 309.3922 0002639 163.0324 197.0985 14.93685362 57991
LEMUR-2-SEJONG-2        
1 64586U 25135BL  26195.84720458  .00002109  00000+0  18883-3 0  9998
2 64586  97.7707 310.6849 0003955 220.3575 139.7353 14.96909956 58085
LEMUR-2-HUBBLE-5        
1 64840U 25135BT  26195.27947831  .00000860  00000+0  85597-4 0  9993
2 64840  97.7739 309.5394 0004270 239.0062 121.0739 14.94212295 57952
LEMUR-2-KARENDARRELL    
1 64841U 25135BU  26195.79634144  .00004234  00000+0  34041-3 0  9997
2 64841  97.7716 311.9680 0012406 106.0163 254.2428 15.00496415 58151
LEMUR-2-LUCILLE-ROSE    
1 65403U 25135BV  26195.83647655  .00003451  00000+0  27830-3 0  9996
2 65403  97.7711 312.0433 0014883 190.0513 170.0415 15.00486338 52789
LEMUR-2-AFFIE-WAUWIE    
1 66295U 25248C   26195.38884985  .00012991  00000+0  47322-3 0  9997
2 66295  45.3893 327.4899 0008759 246.6108 113.3860 15.28229453 38756
OTTER SDM               
1 66678U 25276N   26195.17573471  .00003505  00000+0  16568-3 0  9994
2 66678  97.4208 268.2073 0004268 258.7712 101.3043 15.20049880 34517
LEMUR-2-STAS-GORBUK     
1 66686U 25276W   26195.72367206  .00002799  00000+0  13445-3 0  9996
2 66686  97.4241 268.7981 0003582 250.0656 110.0194 15.19655943 34599
LEMUR-2-TEODOR          
1 66768U 25276DG  26195.74296978  .00003334  00000+0  15199-3 0  9990
2 66768  97.4146 269.0885 0002231  87.3764 272.7727 15.21334511 34633
LEMUR-2-LAILA           
1 66776U 25276DQ  26195.18672460  .00003079  00000+0  13970-3 0  9992
2 66776  97.4170 268.6786 0002890  95.5608 264.5957 15.21556874 34556
LEMUR-2-CELIJO-SB-PK    
1 66781U 25276DW  26195.71801006  .00002704  00000+0  22038-3 0  9996
2 66781  97.5200 265.5868 0007045  65.5259 294.6699 15.00280687 26753
LEMUR-2-FINNIAN         
1 66782U 25276DX  26195.42167484  .00001590  00000+0  13038-3 0  9992
2 66782  97.5382 265.5655 0008441 359.1143   1.0065 15.00610397 24080
